[{"OBJECT_NAME":"STARLINK-32509","OBJECT_ID":"2024-216L","EPOCH":"2025-08-14T14:24:10.000800","MEAN_MOTION":15.27596979,"ECCENTRICITY":5.78e-5,"INCLINATION":42.9989,"RA_OF_ASC_NODE":345.8824,"ARG_OF_PERICENTER":264.8395,"MEAN_ANOMALY":95.2391,"EPHEMERIS_TYPE":0,"CLASSIFICATION_TYPE":"U","NORAD_CAT_ID":62042,"ELEMENT_SET_NO":999,"REV_AT_EPOCH":4220,"BSTAR":0.0014415,"MEAN_MOTION_DOT":0.00039639,"MEAN_MOTION_DDOT":0},{"OBJECT_NAME":"STARLINK-32491","OBJECT_ID":"2024-216M","EPOCH":"2025-08-14T09:05:21.577344","MEAN_MOTION":15.27604093,"ECCENTRICITY":6.86e-5,"INCLINATION":43.001,"RA_OF_ASC_NODE":354.5855,"ARG_OF_PERICENTER":229.6777,"MEAN_ANOMALY":130.4015,"EPHEMERIS_TYPE":0,"CLASSIFICATION_TYPE":"U","NORAD_CAT_ID":62043,"ELEMENT_SET_NO":999,"REV_AT_EPOCH":4208,"BSTAR":0.0010085,"MEAN_MOTION_DOT":0.00027614,"MEAN_MOTION_DDOT":0},{"OBJECT_NAME":"STARLINK-32577","OBJECT_ID":"2024-216N","EPOCH":"2025-08-14T09:56:55.719456","MEAN_MOTION":15.27627906,"ECCENTRICITY":0.0001319,"INCLINATION":43.0009,"RA_OF_ASC_NODE":353.9908,"ARG_OF_PERICENTER":254.5345,"MEAN_ANOMALY":105.5361,"EPHEMERIS_TYPE":0,"CLASSIFICATION_TYPE":"U","NORAD_CAT_ID":62044,"ELEMENT_SET_NO":999,"REV_AT_EPOCH":4210,"BSTAR":0.00075891,"MEAN_MOTION_DOT":0.00020711,"MEAN_MOTION_DDOT":0},{"OBJECT_NAME":"STARLINK-32618","OBJECT_ID":"2024-216P","EPOCH":"2025-08-14T14:40:48.914400","MEAN_MOTION":15.27592054,"ECCENTRICITY":0.0001139,"INCLINATION":42.9985,"RA_OF_ASC_NODE":345.9692,"ARG_OF_PERICENTER":262.5398,"MEAN_ANOMALY":97.5324,"EPHEMERIS_TYPE":0,"CLASSIFICATION_TYPE":"U","NORAD_CAT_ID":62045,"ELEMENT_SET_NO":999,"REV_AT_EPOCH":4220,"BSTAR":0.00078963,"MEAN_MOTION_DOT":0.00021538,"MEAN_MOTION_DDOT":0},{"OBJECT_NAME":"STARLINK-32598","OBJECT_ID":"2024-216Q","EPOCH":"2025-08-14T15:02:48.326208","MEAN_MOTION":15.27603022,"ECCENTRICITY":0.0001001,"INCLINATION":42.999,"RA_OF_ASC_NODE":345.2265,"ARG_OF_PERICENTER":136.8651,"MEAN_ANOMALY":223.2279,"EPHEMERIS_TYPE":0,"CLASSIFICATION_TYPE":"U","NORAD_CAT_ID":62046,"ELEMENT_SET_NO":999,"REV_AT_EPOCH":4221,"BSTAR":0.00089491,"MEAN_MOTION_DOT":0.00024463,"MEAN_MOTION_DDOT":0},{"OBJECT_NAME":"STARLINK-32630","OBJECT_ID":"2024-216R","EPOCH":"2025-08-14T14:56:04.715520","MEAN_MOTION":15.27591823,"ECCENTRICITY":0.0002114,"INCLINATION":43.0039,"RA_OF_ASC_NODE":352.9709,"ARG_OF_PERICENTER":285.6356,"MEAN_ANOMALY":74.4263,"EPHEMERIS_TYPE":0,"CLASSIFICATION_TYPE":"U","NORAD_CAT_ID":62047,"ELEMENT_SET_NO":999,"REV_AT_EPOCH":4212,"BSTAR":0.0012109,"MEAN_MOTION_DOT":0.00033222,"MEAN_MOTION_DDOT":0},{"OBJECT_NAME":"STARLINK-32599","OBJECT_ID":"2024-216S","EPOCH":"2025-08-14T15:01:37.747776","MEAN_MOTION":15.27593992,"ECCENTRICITY":7.64e-5,"INCLINATION":43.0023,"RA_OF_ASC_NODE":352.996,"ARG_OF_PERICENTER":269.6194,"MEAN_ANOMALY":90.4571,"EPHEMERIS_TYPE":0,"CLASSIFICATION_TYPE":"U","NORAD_CAT_ID":62048,"ELEMENT_SET_NO":999,"REV_AT_EPOCH":4212,"BSTAR":0.00079789,"MEAN_MOTION_DOT":0.00021768,"MEAN_MOTION_DDOT":0},{"OBJECT_NAME":"STARLINK-32473","OBJECT_ID":"2024-216T","EPOCH":"2025-08-14T14:27:52.125696","MEAN_MOTION":15.27603235,"ECCENTRICITY":0.0001493,"INCLINATION":43.0024,"RA_OF_ASC_NODE":345.9008,"ARG_OF_PERICENTER":279.1402,"MEAN_ANOMALY":80.9281,"EPHEMERIS_TYPE":0,"CLASSIFICATION_TYPE":"U","NORAD_CAT_ID":62049,"ELEMENT_SET_NO":999,"REV_AT_EPOCH":4104,"BSTAR":0.00094337,"MEAN_MOTION_DOT":0.00025807,"MEAN_MOTION_DDOT":0},{"OBJECT_NAME":"STARLINK-32492","OBJECT_ID":"2024-216U","EPOCH":"2025-08-14T08:07:59.571552","MEAN_MOTION":15.27566273,"ECCENTRICITY":8.13e-5,"INCLINATION":43.003,"RA_OF_ASC_NODE":354.2857,"ARG_OF_PERICENTER":280.0062,"MEAN_ANOMALY":80.0697,"EPHEMERIS_TYPE":0,"CLASSIFICATION_TYPE":"U","NORAD_CAT_ID":62050,"ELEMENT_SET_NO":999,"REV_AT_EPOCH":4208,"BSTAR":0.00075773,"MEAN_MOTION_DOT":0.00020638,"MEAN_MOTION_DDOT":0},{"OBJECT_NAME":"STARLINK-32496","OBJECT_ID":"2024-216V","EPOCH":"2025-08-14T15:16:25.580352","MEAN_MOTION":15.27602398,"ECCENTRICITY":6.81e-5,"INCLINATION":43.001,"RA_OF_ASC_NODE":353.0811,"ARG_OF_PERICENTER":248.3547,"MEAN_ANOMALY":111.7233,"EPHEMERIS_TYPE":0,"CLASSIFICATION_TYPE":"U","NORAD_CAT_ID":62051,"ELEMENT_SET_NO":999,"REV_AT_EPOCH":4212,"BSTAR":0.00081014,"MEAN_MOTION_DOT":0.00022113,"MEAN_MOTION_DDOT":0},{"OBJECT_NAME":"STARLINK-32495","OBJECT_ID":"2024-216W","EPOCH":"2025-08-14T09:16:15.108672","MEAN_MOTION":15.27587283,"ECCENTRICITY":0.0001021,"INCLINATION":43.0017,"RA_OF_ASC_NODE":353.7751,"ARG_OF_PERICENTER":277.2543,"MEAN_ANOMALY":82.8192,"EPHEMERIS_TYPE":0,"CLASSIFICATION_TYPE":"U","NORAD_CAT_ID":62052,"ELEMENT_SET_NO":999,"REV_AT_EPOCH":4209,"BSTAR":0.00063812,"MEAN_MOTION_DOT":0.00017343,"MEAN_MOTION_DDOT":0},{"OBJECT_NAME":"STARLINK-32494","OBJECT_ID":"2024-216X","EPOCH":"2025-08-14T09:53:15.227520","MEAN_MOTION":15.27586521,"ECCENTRICITY":0.0001864,"INCLINATION":43.005,"RA_OF_ASC_NODE":353.974,"ARG_OF_PERICENTER":271.0214,"MEAN_ANOMALY":89.0424,"EPHEMERIS_TYPE":0,"CLASSIFICATION_TYPE":"U","NORAD_CAT_ID":62053,"ELEMENT_SET_NO":999,"REV_AT_EPOCH":4209,"BSTAR":0.00087167,"MEAN_MOTION_DOT":0.00023807,"MEAN_MOTION_DDOT":0},{"OBJECT_NAME":"STARLINK-32408","OBJECT_ID":"2024-216Y","EPOCH":"2025-08-14T14:22:19.188480","MEAN_MOTION":15.27594189,"ECCENTRICITY":0.0001132,"INCLINATION":43.0025,"RA_OF_ASC_NODE":345.8725,"ARG_OF_PERICENTER":291.0154,"MEAN_ANOMALY":69.0577,"EPHEMERIS_TYPE":0,"CLASSIFICATION_TYPE":"U","NORAD_CAT_ID":62054,"ELEMENT_SET_NO":999,"REV_AT_EPOCH":4221,"BSTAR":0.00090209,"MEAN_MOTION_DOT":0.00024655,"MEAN_MOTION_DDOT":0},{"OBJECT_NAME":"STARLINK-32571","OBJECT_ID":"2024-216Z","EPOCH":"2025-08-14T14:57:15.236064","MEAN_MOTION":15.27602417,"ECCENTRICITY":5.23e-5,"INCLINATION":42.9968,"RA_OF_ASC_NODE":345.1907,"ARG_OF_PERICENTER":239.7616,"MEAN_ANOMALY":120.3184,"EPHEMERIS_TYPE":0,"CLASSIFICATION_TYPE":"U","NORAD_CAT_ID":62055,"ELEMENT_SET_NO":999,"REV_AT_EPOCH":4231,"BSTAR":0.0010455,"MEAN_MOTION_DOT":0.00028639,"MEAN_MOTION_DDOT":0},{"OBJECT_NAME":"STARLINK-11465 [DTC]","OBJECT_ID":"2024-217A","EPOCH":"2025-08-14T02:39:01.762848","MEAN_MOTION":15.69846472,"ECCENTRICITY":0.0001461,"INCLINATION":53.1574,"RA_OF_ASC_NODE":14.3459,"ARG_OF_PERICENTER":70.153,"MEAN_ANOMALY":289.9645,"EPHEMERIS_TYPE":0,"CLASSIFICATION_TYPE":"U","NORAD_CAT_ID":62057,"ELEMENT_SET_NO":999,"REV_AT_EPOCH":4257,"BSTAR":0.0029832,"MEAN_MOTION_DOT":0.00380016,"MEAN_MOTION_DDOT":0},{"OBJECT_NAME":"STARLINK-11426 [DTC]","OBJECT_ID":"2024-217B","EPOCH":"2025-08-14T10:10:22.791360","MEAN_MOTION":15.69806681,"ECCENTRICITY":1.79e-5,"INCLINATION":53.1578,"RA_OF_ASC_NODE":12.7444,"ARG_OF_PERICENTER":51.9544,"MEAN_ANOMALY":308.149,"EPHEMERIS_TYPE":0,"CLASSIFICATION_TYPE":"U","NORAD_CAT_ID":62058,"ELEMENT_SET_NO":999,"REV_AT_EPOCH":4256,"BSTAR":0.0015225,"MEAN_MOTION_DOT":0.00188881,"MEAN_MOTION_DDOT":0}]
