STARLINK-32509          
1 62042U 24216L   25226.60011575  .00039639  00000+0  14415-2 0  9997
2 62042  42.9989 345.8824 0000578 264.8395  95.2391 15.27596979 42205
STARLINK-32491          
1 62043U 24216M   25226.37872196  .00027614  00000+0  10085-2 0  9995
2 62043  43.0010 354.5855 0000686 229.6777 130.4015 15.27604093 42085
STARLINK-32577          
1 62044U 24216N   25226.41453379  .00020711  00000+0  75891-3 0  9997
2 62044  43.0009 353.9908 0001319 254.5345 105.5361 15.27627906 42106
STARLINK-32618          
1 62045U 24216P   25226.61167725  .00021538  00000+0  78963-3 0  9998
2 62045  42.9985 345.9692 0001139 262.5398  97.5324 15.27592054 42201
STARLINK-32598          
1 62046U 24216Q   25226.62694822  .00024463  00000+0  89491-3 0  9991
2 62046  42.9990 345.2265 0001001 136.8651 223.2279 15.27603022 42216
STARLINK-32630          
1 62047U 24216R   25226.62227680  .00033222  00000+0  12109-2 0  9990
2 62047  43.0039 352.9709 0002114 285.6356  74.4263 15.27591823 42126
STARLINK-32599          
1 62048U 24216S   25226.62613134  .00021768  00000+0  79789-3 0  9994
2 62048  43.0023 352.9960 0000764 269.6194  90.4571 15.27593992 42129
STARLINK-32473          
1 62049U 24216T   25226.60268664  .00025807  00000+0  94337-3 0  9991
2 62049  43.0024 345.9008 0001493 279.1402  80.9281 15.27603235 41048
STARLINK-32492          
1 62050U 24216U   25226.33888393  .00020638  00000+0  75773-3 0  9990
2 62050  43.0030 354.2857 0000813 280.0062  80.0697 15.27566273 42087
STARLINK-32496          
1 62051U 24216V   25226.63640718  .00022113  00000+0  81014-3 0  9996
2 62051  43.0010 353.0811 0000681 248.3547 111.7233 15.27602398 42123
STARLINK-32495          
1 62052U 24216W   25226.38628598  .00017343  00000+0  63812-3 0  9996
2 62052  43.0017 353.7751 0001021 277.2543  82.8192 15.27587283 42090
STARLINK-32494          
1 62053U 24216X   25226.41198180  .00023807  00000+0  87167-3 0  9991
2 62053  43.0050 353.9740 0001864 271.0214  89.0424 15.27586521 42091
STARLINK-32408          
1 62054U 24216Y   25226.59883320  .00024655  00000+0  90209-3 0  9991
2 62054  43.0025 345.8725 0001132 291.0154  69.0577 15.27594189 42210
STARLINK-32571          
1 62055U 24216Z   25226.62309301  .00028639  00000+0  10455-2 0  9998
2 62055  42.9968 345.1907 0000523 239.7616 120.3184 15.27602417 42315
STARLINK-11465 [DTC]    
1 62057U 24217A   25226.11043707  .00380016  00000+0  29832-2 0  9999
2 62057  53.1574  14.3459 0001461  70.1530 289.9645 15.69846472 42574
STARLINK-11426 [DTC]    
1 62058U 24217B   25226.42387490  .00188881  00000+0  15225-2 0  9991
2 62058  53.1578  12.7444 0000179  51.9544 308.1490 15.69806681 42561
